SOYUZ-MS 28             
1 66664U 25275A   26189.47612157  .00005295  00000+0  10439-3 0  9998
2 66664  51.6304 194.7265 0006674 271.3270  88.6954 15.48944488645536
CREW DRAGON 12          
1 67796U 26031A   26189.47612157  .00005295  00000+0  10439-3 0  9996
2 67796  51.6304 194.7265 0006674 271.3270  88.6954 15.48944488627803
SHENZHOU-23 (SZ-23)     
1 69180U 26113A   26188.45886303  .00008899  00000+0  11943-3 0  9993
2 69180  41.4676 198.7215 0002931 276.4067  83.6437 15.58027856296762
