{"fetched_at":"2026-07-08T17:59:34.083Z","source":"https://celestrak.org/NORAD/elements/gp.php?GROUP=stations&FORMAT=JSON","constellation":"crewed-vehicles","records":[{"OBJECT_NAME":"SOYUZ-MS 28","OBJECT_ID":"2025-275A","EPOCH":"2026-07-08T11:25:36.903648","CLASSIFICATION_TYPE":"U","MEAN_MOTION":15.48944488,"ECCENTRICITY":0.0006674,"INCLINATION":51.6304,"RA_OF_ASC_NODE":194.7265,"ARG_OF_PERICENTER":271.327,"MEAN_ANOMALY":88.6954,"EPHEMERIS_TYPE":0,"NORAD_CAT_ID":66664,"ELEMENT_SET_NO":999,"REV_AT_EPOCH":64553,"BSTAR":0.00010439,"MEAN_MOTION_DOT":0.00005295,"MEAN_MOTION_DDOT":0},{"OBJECT_NAME":"CREW DRAGON 12","OBJECT_ID":"2026-031A","EPOCH":"2026-07-08T11:25:36.903648","CLASSIFICATION_TYPE":"U","MEAN_MOTION":15.48944488,"ECCENTRICITY":0.0006674,"INCLINATION":51.6304,"RA_OF_ASC_NODE":194.7265,"ARG_OF_PERICENTER":271.327,"MEAN_ANOMALY":88.6954,"EPHEMERIS_TYPE":0,"NORAD_CAT_ID":67796,"ELEMENT_SET_NO":999,"REV_AT_EPOCH":62780,"BSTAR":0.00010439,"MEAN_MOTION_DOT":0.00005295,"MEAN_MOTION_DDOT":0},{"OBJECT_NAME":"SHENZHOU-23 (SZ-23)","OBJECT_ID":"2026-113A","EPOCH":"2026-07-07T11:00:45.765792","CLASSIFICATION_TYPE":"U","MEAN_MOTION":15.58027856,"ECCENTRICITY":0.00029311,"INCLINATION":41.4676,"RA_OF_ASC_NODE":198.7215,"ARG_OF_PERICENTER":276.4067,"MEAN_ANOMALY":83.6437,"EPHEMERIS_TYPE":0,"NORAD_CAT_ID":69180,"ELEMENT_SET_NO":999,"REV_AT_EPOCH":29676,"BSTAR":0.00011943047,"MEAN_MOTION_DOT":0.00008899,"MEAN_MOTION_DDOT":0}]}
